CZ-2D R/B               
1 28738U 05024B   26069.60730736  .00046867  00000+0  57363-3 0  9991
2 28738  97.3603  84.7872 0005730  43.9585 316.2127 15.60237643139926
ALOS (DAICHI)           
1 28931U 06002A   26069.86446995  .00001808  00000+0  31098-3 0  9995
2 28931  98.1219  25.8140 0000866  57.3766 302.7524 14.69814887 73659
H-2A R/B                
1 28932U 06002B   26069.40100655  .00013102  00000+0  65433-3 0  9996
2 28932  98.2415 216.4856 0051870 238.5346 121.0809 15.16440954 94541
RESURS-DK 1             
1 29228U 06021A   26069.85794464  .00003848  00000+0  22500-3 0  9996
2 29228  69.9325 234.0005 0001803 162.5581 197.5647 15.12754122 87704
CZ-4B R/B               
1 29507U 06046C   26069.59869554  .00005924  00000+0  30025-3 0  9995
2 29507  97.5597 114.5055 0031692 263.9723  95.7898 15.16916111 60184
CZ-2C R/B               
1 31114U 07010B   26069.85309473  .00000166  00000+0  95774-4 0  9998
2 31114  98.3979 183.0734 0057887 291.1554  68.3443 14.20246722979884
COSMO-SKYMED 1          
1 31598U 07023A   26069.80113159  .00004298  00000+0  38307-3 0  9995
2 31598  97.8875 260.8416 0001355  99.4831 260.6543 14.96544983 15079
COSMOS 2428             
1 31792U 07029A   26069.87982697  .00000055  00000+0  55157-4 0  9995
2 31792  70.9434 200.8448 0009152 275.8897  84.1181 14.12946414964266
SL-16 R/B               
1 31793U 07029B   26069.71478281  .00000095  00000+0  74194-4 0  9994
2 31793  70.9759 170.2304 0002282 275.9843 246.4106 14.14833651965516
KORONAS-FOTON           
1 33504U 09003A   26069.60718039  .00011276  00000+0  25155-3 0  9991
2 33504  82.4279 274.9239 0011357 146.5620 213.6347 15.43342480945880
CZ-2C R/B               
1 37731U 11030B   26069.82678419  .00002087  00000+0  26867-3 0  9992
2 37731  97.8543  27.0671 0052289 348.3992  66.9302 14.81227927790269
H-2A R/B                
1 38341U 12025E   26069.86626800  .00004277  00000+0  38843-3 0  9996
2 38341  98.4739  37.0069 0043285 310.5321  49.2130 14.95181483748397
SHIJIAN-16 (SJ-16)      
1 39358U 13057A   26069.83573653 -.00000233  00000+0 -19821-4 0  9991
2 39358  74.9730 182.9185 0015549 109.5551 250.7318 14.92349451671679
SL-4 R/B                
1 39679U 14021B   26069.73268710  .00018107  00000+0  39689-3 0  9993
2 39679  51.6081 332.1903 0097420 106.8139 254.3558 15.39220395656433
ALOS-2                  
1 39766U 14029A   26069.86855100  .00002813  00000+0  38300-3 0  9993
2 39766  97.9186 168.4482 0001397  95.4787 264.6584 14.79510259637044
YAOGAN-29               
1 41038U 15069A   26069.87403314 -.00000047  00000+0  88326-6 0  9994
2 41038  98.0144  98.3067 0001816  34.0661 326.0668 14.82995089556050
ASTRO-H (HITOMI)        
1 41337U 16012A   26069.82394716  .00004027  00000+0  23588-3 0  9992
2 41337  31.0007 349.2282 0009805 342.4768  17.5531 15.10015481552401
HXMT (HUIYAN)           
1 42758U 17034A   26069.89661396  .00007769  00000+0  38682-3 0  9990
2 42758  43.0158   9.9631 0033059 243.3318 116.4143 15.17484695482724
SAOCOM 1A               
1 43641U 18076A   26068.96299391  .00001305  00000+0  17043-3 0  9996
2 43641  97.8895 257.1316 0001339  83.6952 276.4413 14.82173643401405
H-2A R/B                
1 43682U 18084L   26069.57677843  .00023504  00000+0  55790-3 0  9996
2 43682  98.8729 287.1541 0025388  22.2756 337.9583 15.41390798405910
SAOCOM 1B               
1 46265U 20059A   26069.80438700  .00000987  00000+0  13051-3 0  9998
2 46265  97.8894 257.0587 0001361  85.6378 274.4991 14.82149543298918
CSS (TIANHE)            
1 48274U 21035A   26069.80341873  .00031070  00000+0  36544-3 0  9998
2 48274  41.4661 201.3850 0006965 279.9751  80.0301 15.60727089277782
COSMOS 2550             
1 48865U 21056A   26069.88668778 -.00000188  00000+0  10455-6 0  9994
2 48865  67.1455  37.3105 0008424 269.5139  90.5050 15.33830688263648
CZ-2C R/B               
1 52794U 22058K   26069.86244331  .00040089  00000+0  58180-3 0  9993
2 52794  50.1895 312.2564 0042139 205.8829 154.0034 15.54329548210313
CZ-2C R/B               
1 54039U 22132E   26069.52488912  .00044069  00000+0  50113-3 0  9998
2 54039  97.2967  72.8671 0020627  88.6324 271.7296 15.61920631190505
GSLV R/B                
1 54149U 22138AN  26069.79051096  .00003930  00000+0  33937-3 0  9991
2 54149  87.3873 165.9935 0023121 142.9300 217.3534 14.96783710184090
XRISM                   
1 57800U 23137A   26069.82928417  .00006101  00000+0  34560-3 0  9998
2 57800  31.0015 276.2923 0007860  50.5132 309.6200 15.11516802137966
ACS3                    
1 59588U 24077B   26069.79404068  .00014119  00000+0  11362-1 0  9995
2 59588  97.2064  10.6574 0060397  73.9334 286.8469 13.89638857 94354
SZ-21 MODULE            
1 66515U 25246C   26069.39180920  .00046134  00000+0  39495-3 0  9997
2 66515  41.4733 199.0379 0001321 300.4317  59.6394 15.68612654 18188
